{"type": "FeatureCollection", "features": [{"type": "Feature", "properties": {"name": "Universidade Federal de Viçosa", "source": "OpenStreetMap way/292669729", "notice": "Limite cartográfico colaborativo; não delimitação cadastral oficial"}, "geometry": {"type": "Polygon", "coordinates": [[[-42.875619, -20.7538562], [-42.875465, -20.7538216], [-42.8753664, -20.7536084], [-42.8735917, -20.7541904], [-42.8730741, -20.7540867], [-42.8718267, -20.7536645], [-42.8718971, -20.7534068], [-42.8714596, -20.7532397], [-42.8713339, -20.7532794], [-42.8711377, -20.7532161], [-42.8706356, -20.7535163], [-42.8704053, -20.7536076], [-42.8699583, -20.7545385], [-42.8705698, -20.754719], [-42.8722328, -20.7552307], [-42.8730613, -20.7554675], [-42.8735806, -20.7561389], [-42.8730993, -20.7566022], [-42.8726765, -20.7567981], [-42.8717285, -20.7572372], [-42.8713842, -20.7573665], [-42.8710578, -20.7575101], [-42.8708746, -20.7575407], [-42.8697115, -20.7565149], [-42.8688403, -20.7562107], [-42.8679343, -20.7560452], [-42.8677856, -20.7563894], [-42.8672902, -20.7567005], [-42.8671769, -20.7571638], [-42.8675945, -20.7577661], [-42.8680405, -20.7580375], [-42.8679838, -20.7583751], [-42.8682174, -20.7586597], [-42.8678847, -20.7588186], [-42.86746, -20.7586928], [-42.8673397, -20.7588053], [-42.867368, -20.7589708], [-42.8677601, -20.7592616], [-42.8678635, -20.7594804], [-42.8677459, -20.7596985], [-42.8668965, -20.7602942], [-42.8660329, -20.7598441], [-42.8655233, -20.7600956], [-42.8653496, -20.7601061], [-42.8644332, -20.7601618], [-42.864153, -20.7604627], [-42.8635897, -20.7600604], [-42.8625276, -20.759068], [-42.8604262, -20.7589375], [-42.861263, -20.7604749], [-42.8613479, -20.7606735], [-42.8612987, -20.76079], [-42.8611851, -20.7608985], [-42.8582732, -20.7618866], [-42.8567442, -20.7632625], [-42.8530584, -20.7680627], [-42.8529067, -20.7684885], [-42.8529193, -20.7690452], [-42.8532929, -20.7693312], [-42.8536746, -20.7695032], [-42.8545804, -20.7695519], [-42.8554172, -20.7692911], [-42.8569193, -20.7687895], [-42.8575201, -20.7686892], [-42.8581853, -20.7688898], [-42.8587646, -20.7693513], [-42.8588934, -20.7699933], [-42.8581424, -20.7725012], [-42.8579278, -20.7749087], [-42.8576511, -20.779405], [-42.8582282, -20.7808872], [-42.8594513, -20.7816897], [-42.8617687, -20.7820107], [-42.8636784, -20.7813085], [-42.8644938, -20.7799242], [-42.8643222, -20.777256], [-42.8632715, -20.7753744], [-42.8630562, -20.7749889], [-42.8626485, -20.772461], [-42.8629703, -20.7696723], [-42.8632768, -20.7687278], [-42.8638287, -20.7678174], [-42.864846, -20.7672955], [-42.866028, -20.7671512], [-42.866826, -20.7674527], [-42.8673304, -20.7681339], [-42.8679655, -20.7691644], [-42.8681939, -20.7694163], [-42.8711566, -20.7708101], [-42.8697548, -20.7719192], [-42.8692759, -20.773982], [-42.8701244, -20.7741796], [-42.8712656, -20.7730323], [-42.8727896, -20.774199], [-42.8750079, -20.7760634], [-42.8759979, -20.7762904], [-42.8768945, -20.7762206], [-42.8779593, -20.7757839], [-42.8785384, -20.774998], [-42.8784252, -20.7734016], [-42.8779033, -20.7717843], [-42.877511, -20.7708412], [-42.8764029, -20.7692018], [-42.8751013, -20.7682212], [-42.8729717, -20.7668414], [-42.8713466, -20.765514], [-42.8710851, -20.7652345], [-42.8710012, -20.7645969], [-42.8711678, -20.7639904], [-42.8715149, -20.7634267], [-42.8725812, -20.7619514], [-42.8731165, -20.7611895], [-42.873724, -20.7601889], [-42.8739647, -20.7599306], [-42.8744149, -20.7596865], [-42.8751818, -20.7593286], [-42.8752942, -20.7592819], [-42.8755275, -20.759165], [-42.8757555, -20.7589775], [-42.8760888, -20.7585724], [-42.8762417, -20.7583837], [-42.876408, -20.7581486], [-42.8758896, -20.757839], [-42.8757727, -20.7577693], [-42.8754699, -20.7577633], [-42.8754763, -20.7576601], [-42.8754558, -20.7576259], [-42.8754058, -20.7575032], [-42.8753928, -20.7574685], [-42.8753713, -20.7574265], [-42.8752919, -20.7573304], [-42.8752592, -20.7572465], [-42.8750252, -20.7569202], [-42.8747601, -20.756528], [-42.8746759, -20.7564227], [-42.8746635, -20.7564002], [-42.8744773, -20.7561216], [-42.8745829, -20.7559709], [-42.8751538, -20.7550919], [-42.8750901, -20.7549926], [-42.8756139, -20.7543042], [-42.8759727, -20.7537599], [-42.875619, -20.7538562]]]}}]}